{"type": "FeatureCollection", "features": [ {"type": "Feature", "properties": {"norad_id": 43262, "name": "GAOFEN-1 04", "group": "resource", "lat": -21.202655895141834, "lon": 50.78814956434521, "alt_km": 645.6930459603254, "timestamp": "2025-12-15T19:00:45.003934+00:00", "meta": {"OBJECT_NAME": "GAOFEN-1 04", "OBJECT_ID": "2018-031D", "EPOCH": "2025-12-14T23:35:28.918176", "MEAN_MOTION": 14.76455838, "ECCENTRICITY": 9.615e-05, "INCLINATION": 98.0808, "RA_OF_ASC_NODE": 46.8192, "ARG_OF_PERICENTER": 59.0635, "MEAN_ANOMALY": 301.0668, "EPHEMERIS_TYPE": 0, "CLASSIFICATION_TYPE": "U", "NORAD_CAT_ID": 43262, "ELEMENT_SET_NO": 999, "REV_AT_EPOCH": 41550, "BSTAR": 0.00015501811, "MEAN_MOTION_DOT": 1.027e-05, "MEAN_MOTION_DDOT": 0}, "tle": {"line1": "1 43262U 18031D   25348.98297359  .00001027  00000+0  15502-3 0  9999", "line2": "2 43262  98.0808  46.8192 0000961  59.0635 301.0668 14.76455838415506"}}, "geometry": {"type": "Point", "coordinates": [50.78814956434521, -21.202655895141834]}}, {"type": "Feature", "properties": {"norad_id": 43437, "name": "SENTINEL-3B", "group": "resource", "lat": -39.7046200934111, "lon": 62.175389809696206, "alt_km": 809.992429102098, "timestamp": "2025-12-15T19:00:45.003944+00:00", "meta": {"OBJECT_NAME": "SENTINEL-3B", "OBJECT_ID": "2018-039A", "EPOCH": "2025-12-14T21:19:12.976032", "MEAN_MOTION": 14.26734689, "ECCENTRICITY": 0.00016438, "INCLINATION": 98.6266, "RA_OF_ASC_NODE": 54.043, "ARG_OF_PERICENTER": 99.9545, "MEAN_ANOMALY": 260.1821, "EPHEMERIS_TYPE": 0, "CLASSIFICATION_TYPE": "U", "NORAD_CAT_ID": 43437, "ELEMENT_SET_NO": 999, "REV_AT_EPOCH": 39784, "BSTAR": 7.1664972e-05, "MEAN_MOTION_DOT": 1.3e-06, "MEAN_MOTION_DDOT": 0}, "tle": {"line1": "1 43437U 18039A   25348.88834463  .00000130  00000+0  71665-4 0  9990", "line2": "2 43437  98.6266  54.0430 0001643  99.9545 260.1821 14.26734689397842"}}, "geometry": {"type": "Point", "coordinates": [62.175389809696206, -39.7046200934111]}}, {"type": "Feature", "properties": {"norad_id": 43461, "name": "GAOFEN-5 01", "group": "resource", "lat": -41.07712763779947, "lon": -39.75776812129411, "alt_km": 697.8302542368947, "timestamp": "2025-12-15T19:00:45.003954+00:00", "meta": {"OBJECT_NAME": "GAOFEN-5 01", "OBJECT_ID": "2018-043A", "EPOCH": "2025-12-14T21:49:34.617216", "MEAN_MOTION": 14.60411973, "ECCENTRICITY": 8.102e-05, "INCLINATION": 98.4327, "RA_OF_ASC_NODE": 311.9145, "ARG_OF_PERICENTER": 331.2279, "MEAN_ANOMALY": 28.8876, "EPHEMERIS_TYPE": 0, "CLASSIFICATION_TYPE": "U", "NORAD_CAT_ID": 43461, "ELEMENT_SET_NO": 999, "REV_AT_EPOCH": 40479, "BSTAR": 0.00010858328, "MEAN_MOTION_DOT": 4.77e-06, "MEAN_MOTION_DDOT": 0}, "tle": {"line1": "1 43461U 18043A   25348.90942844  .00000477  00000+0  10858-3 0  9998", "line2": "2 43461  98.4327 311.9145 0000810 331.2279  28.8876 14.60411973404792"}}, "geometry": {"type": "Point", "coordinates": [-39.75776812129411, -41.07712763779947]}}, {"type": "Feature", "properties": {"norad_id": 43484, "name": "GAOFEN-6", "group": "resource", "lat": 48.08650737366047, "lon": -117.25665054424123, "alt_km": 633.7353963012765, "timestamp": "2025-12-15T19:00:45.003964+00:00", "meta": {"OBJECT_NAME": "GAOFEN-6", "OBJECT_ID": "2018-048A", "EPOCH": "2025-12-14T22:54:17.642304", "MEAN_MOTION": 14.76573293, "ECCENTRICITY": 0.00131376, "INCLINATION": 97.8031, "RA_OF_ASC_NODE": 53.1467, "ARG_OF_PERICENTER": 57.2698, "MEAN_ANOMALY": 302.9777, "EPHEMERIS_TYPE": 0, "CLASSIFICATION_TYPE": "U", "NORAD_CAT_ID": 43484, "ELEMENT_SET_NO": 999, "REV_AT_EPOCH": 40620, "BSTAR": 0.00021012334, "MEAN_MOTION_DOT": 1.419e-05, "MEAN_MOTION_DDOT": 0}, "tle": {"line1": "1 43484U 18048A   25348.95437086  .00001419  00000+0  21012-3 0  9991", "line2": "2 43484  97.8031  53.1467 0013137  57.2698 302.9777 14.76573293406205"}}, "geometry": {"type": "Point", "coordinates": [-117.25665054424123, 48.08650737366047]}}, {"type": "Feature", "properties": {"norad_id": 43585, "name": "GAOFEN-11 01", "group": "resource", "lat": 14.987462997222247, "lon": 50.77270199493121, "alt_km": 419.01417915747425, "timestamp": "2025-12-15T19:00:45.003975+00:00", "meta": {"OBJECT_NAME": "GAOFEN-11 01", "OBJECT_ID": "2018-063A", "EPOCH": "2025-12-14T22:47:45.885696", "MEAN_MOTION": 15.49289321, "ECCENTRICITY": 0.00042307, "INCLINATION": 97.1568, "RA_OF_ASC_NODE": 51.8649, "ARG_OF_PERICENTER": 302.8292, "MEAN_ANOMALY": 57.2552, "EPHEMERIS_TYPE": 0, "CLASSIFICATION_TYPE": "U", "NORAD_CAT_ID": 43585, "ELEMENT_SET_NO": 999, "REV_AT_EPOCH": 41176, "BSTAR": 0.00020481715, "MEAN_MOTION_DOT": 0.00011109, "MEAN_MOTION_DDOT": 0}, "tle": {"line1": "1 43585U 18063A   25348.94983664  .00011109  00000+0  20482-3 0  9994", "line2": "2 43585  97.1568  51.8649 0004230 302.8292  57.2552 15.49289321411760"}}, "geometry": {"type": "Point", "coordinates": [50.77270199493121, 14.987462997222247]}}, {"type": "Feature", "properties": {"norad_id": 43613, "name": "ICESAT-2", "group": "resource", "lat": -60.48273417701394, "lon": 58.013593347880914, "alt_km": 488.6450997861193, "timestamp": "2025-12-15T19:00:45.003985+00:00", "meta": {"OBJECT_NAME": "ICESAT-2", "OBJECT_ID": "2018-070A", "EPOCH": "2025-12-14T21:32:04.284384", "MEAN_MOTION": 15.28298004, "ECCENTRICITY": 0.00025917, "INCLINATION": 92.0049, "RA_OF_ASC_NODE": 241.3195, "ARG_OF_PERICENTER": 137.3514, "MEAN_ANOMALY": 222.7937, "EPHEMERIS_TYPE": 0, "CLASSIFICATION_TYPE": "U", "NORAD_CAT_ID": 43613, "ELEMENT_SET_NO": 999, "REV_AT_EPOCH": 40431, "BSTAR": 0.00031800887, "MEAN_MOTION_DOT": 8.763e-05, "MEAN_MOTION_DDOT": 0}, "tle": {"line1": "1 43613U 18070A   25348.89727181  .00008763  00000+0  31801-3 0  9997", "line2": "2 43613  92.0049 241.3195 0002591 137.3514 222.7937 15.28298004404312"}}, "geometry": {"type": "Point", "coordinates": [58.013593347880914, -60.48273417701394]}}, {"type": "Feature", "properties": {"norad_id": 43719, "name": "HYSIS", "group": "resource", "lat": -9.33385741452891, "lon": -128.57154441772116, "alt_km": 638.3517258601441, "timestamp": "2025-12-15T19:00:45.003996+00:00", "meta": {"OBJECT_NAME": "HYSIS", "OBJECT_ID": "2018-096A", "EPOCH": "2025-12-14T22:40:12.614880", "MEAN_MOTION": 14.78655044, "ECCENTRICITY": 0.00012643, "INCLINATION": 98.0099, "RA_OF_ASC_NODE": 51.9112, "ARG_OF_PERICENTER": 55.62, "MEAN_ANOMALY": 304.513, "EPHEMERIS_TYPE": 0, "CLASSIFICATION_TYPE": "U", "NORAD_CAT_ID": 43719, "ELEMENT_SET_NO": 999, "REV_AT_EPOCH": 38019, "BSTAR": 0.00027582251, "MEAN_MOTION_DOT": 1.969e-05, "MEAN_MOTION_DDOT": 0}, "tle": {"line1": "1 43719U 18096A   25348.94459045  .00001969  00000+0  27582-3 0  9991", "line2": "2 43719  98.0099  51.9112 0001264  55.6200 304.5130 14.78655044380192"}}, "geometry": {"type": "Point", "coordinates": [-128.57154441772116, -9.33385741452891]}}, {"type": "Feature", "properties": {"norad_id": 43783, "name": "KAZSTSAT", "group": "resource", "lat": -66.3929410402731, "lon": 42.283027870889136, "alt_km": 572.4430431554229, "timestamp": "2025-12-15T19:00:45.004006+00:00", "meta": {"OBJECT_NAME": "KAZSTSAT", "OBJECT_ID": "2018-099AB", "EPOCH": "2025-12-14T16:05:03.549408", "MEAN_MOTION": 14.99358736, "ECCENTRICITY": 0.00058816, "INCLINATION": 97.4557, "RA_OF_ASC_NODE": 23.7728, "ARG_OF_PERICENTER": 321.8607, "MEAN_ANOMALY": 38.22, "EPHEMERIS_TYPE": 0, "CLASSIFICATION_TYPE": "U", "NORAD_CAT_ID": 43783, "ELEMENT_SET_NO": 999, "REV_AT_EPOCH": 38365, "BSTAR": 9.6030563e-05, "MEAN_MOTION_DOT": 1.119e-05, "MEAN_MOTION_DDOT": 0}, "tle": {"line1": "1 43783U 18099AB  25348.67017997  .00001119  00000+0  96031-4 0  9994", "line2": "2 43783  97.4557  23.7728 0005881 321.8607  38.2200 14.99358736383657"}}, "geometry": {"type": "Point", "coordinates": [42.283027870889136, -66.3929410402731]}}, {"type": "Feature", "properties": {"norad_id": 43831, "name": "SAUDISAT 5A", "group": "resource", "lat": -81.65732926551068, "lon": 111.38554408102533, "alt_km": 503.17752034920886, "timestamp": "2025-12-15T19:00:45.004019+00:00", "meta": {"OBJECT_NAME": "SAUDISAT 5A", "OBJECT_ID": "2018-102A", "EPOCH": "2025-12-14T22:55:35.469696", "MEAN_MOTION": 15.25688162, "ECCENTRICITY": 0.00116816, "INCLINATION": 97.3357, "RA_OF_ASC_NODE": 49.1035, "ARG_OF_PERICENTER": 69.3805, "MEAN_ANOMALY": 290.8685, "EPHEMERIS_TYPE": 0, "CLASSIFICATION_TYPE": "U", "NORAD_CAT_ID": 43831, "ELEMENT_SET_NO": 999, "REV_AT_EPOCH": 38756, "BSTAR": 0.00019024174, "MEAN_MOTION_DOT": 4.783e-05, "MEAN_MOTION_DDOT": 0}, "tle": {"line1": "1 43831U 18102A   25348.95527164  .00004783  00000+0  19024-3 0  9992", "line2": "2 43831  97.3357  49.1035 0011681  69.3805 290.8685 15.25688162387566"}}, "geometry": {"type": "Point", "coordinates": [111.38554408102533, -81.65732926551068]}}, {"type": "Feature", "properties": {"norad_id": 43833, "name": "SAUDISAT 5B", "group": "resource", "lat": -29.83589311904931, "lon": 56.91129718052817, "alt_km": 494.94578759017077, "timestamp": "2025-12-15T19:00:45.004029+00:00", "meta": {"OBJECT_NAME": "SAUDISAT 5B", "OBJECT_ID": "2018-102C", "EPOCH": "2025-12-14T22:41:09.422016", "MEAN_MOTION": 15.26039101, "ECCENTRICITY": 0.00124156, "INCLINATION": 97.3451, "RA_OF_ASC_NODE": 51.8363, "ARG_OF_PERICENTER": 71.6515, "MEAN_ANOMALY": 288.6073, "EPHEMERIS_TYPE": 0, "CLASSIFICATION_TYPE": "U", "NORAD_CAT_ID": 43833, "ELEMENT_SET_NO": 999, "REV_AT_EPOCH": 38767, "BSTAR": 0.00018777871, "MEAN_MOTION_DOT": 4.771e-05, "MEAN_MOTION_DDOT": 0}, "tle": {"line1": "1 43833U 18102C   25348.94524794  .00004771  00000+0  18778-3 0  9991", "line2": "2 43833  97.3451  51.8363 0012415  71.6515 288.6073 15.26039101387679"}}, "geometry": {"type": "Point", "coordinates": [56.91129718052817, -29.83589311904931]}}]}